{
  "type": "FeatureCollection",
  "features": [
    {
      "type": "Feature",
      "properties": {
        "norad_id": 66174,
        "name": "HTV-X1",
        "group": "stations",
        "lat": 31.841882882201865,
        "lon": -99.02835203789999,
        "alt_km": 415.05128381851955,
        "timestamp": "2025-12-19T04:59:47.056969+00:00",
        "meta_object_name": "HTV-X1",
        "meta_object_id": "2025-241A",
        "meta_epoch": "2025-12-18T16:01:23.678688",
        "meta_mean_motion": 15.49654558,
        "meta_eccentricity": 0.00031819,
        "meta_inclination": 51.6314,
        "meta_ra_of_asc_node": 113.1238,
        "meta_arg_of_pericenter": 267.6136,
        "meta_mean_anomaly": 92.4488,
        "meta_ephemeris_type": 0,
        "meta_classification_type": "U",
        "meta_norad_cat_id": 66174,
        "meta_element_set_no": 999,
        "meta_rev_at_epoch": 51,
        "meta_bstar": 0.000138424,
        "meta_mean_motion_dot": 7.358e-05,
        "meta_mean_motion_ddot": 0,
        "tle_line1": "1 66174U 25241A   25352.66763517  .00007358  00000+0  13842-3 0  9999",
        "tle_line2": "2 66174  51.6314 113.1238 0003181 267.6136  92.4488 15.49654558   512"
      },
      "geometry": {
        "type": "Point",
        "coordinates": [
          -99.02835203789999,
          31.841882882201865
        ]
      }
    },
    {
      "type": "Feature",
      "properties": {
        "norad_id": 66515,
        "name": "SZ-21 MODULE",
        "group": "stations",
        "lat": 32.59174822912628,
        "lon": 110.21391754368521,
        "alt_km": 378.0515062444438,
        "timestamp": "2025-12-19T04:59:47.056979+00:00",
        "meta_object_name": "SZ-21 MODULE",
        "meta_object_id": "2025-246C",
        "meta_epoch": "2025-12-18T08:31:24.923712",
        "meta_mean_motion": 15.62772734,
        "meta_eccentricity": 0.00058547,
        "meta_inclination": 41.4774,
        "meta_ra_of_asc_node": 341.7845,
        "meta_arg_of_pericenter": 290.1533,
        "meta_mean_anomaly": 69.8677,
        "meta_ephemeris_type": 0,
        "meta_classification_type": "U",
        "meta_norad_cat_id": 66515,
        "meta_element_set_no": 999,
        "meta_rev_at_epoch": 532,
        "meta_bstar": 0.00027860354,
        "meta_mean_motion_dot": 0.00025551,
        "meta_mean_motion_ddot": 0,
        "tle_line1": "1 66515U 25246C   25352.35514958  .00025551  00000+0  27860-3 0  9992",
        "tle_line2": "2 66515  41.4774 341.7845 0005854 290.1533  69.8677 15.62772734  5326"
      },
      "geometry": {
        "type": "Point",
        "coordinates": [
          110.21391754368521,
          32.59174822912628
        ]
      }
    },
    {
      "type": "Feature",
      "properties": {
        "norad_id": 66645,
        "name": "SHENZHOU-22",
        "group": "stations",
        "lat": 25.51693425162433,
        "lon": 124.71005102403528,
        "alt_km": 381.78628521593964,
        "timestamp": "2025-12-19T04:59:47.056991+00:00",
        "meta_object_name": "SHENZHOU-22",
        "meta_object_id": "2025-272A",
        "meta_epoch": "2025-12-18T22:15:16.316352",
        "meta_mean_motion": 15.59443301,
        "meta_eccentricity": 0.00076984,
        "meta_inclination": 41.4683,
        "meta_ra_of_asc_node": 339.1361,
        "meta_arg_of_pericenter": 85.4974,
        "meta_mean_anomaly": 274.6744,
        "meta_ephemeris_type": 0,
        "meta_classification_type": "U",
        "meta_norad_cat_id": 66645,
        "meta_element_set_no": 999,
        "meta_rev_at_epoch": 26357,
        "meta_bstar": 0.00026140428,
        "meta_mean_motion_dot": 0.0002103,
        "meta_mean_motion_ddot": 0,
        "tle_line1": "1 66645U 25272A   25352.92727218  .00021030  00000+0  26140-3 0  9991",
        "tle_line2": "2 66645  41.4683 339.1361 0007698  85.4974 274.6744 15.59443301263570"
      },
      "geometry": {
        "type": "Point",
        "coordinates": [
          124.71005102403528,
          25.51693425162433
        ]
      }
    },
    {
      "type": "Feature",
      "properties": {
        "norad_id": 66664,
        "name": "SOYUZ-MS 28",
        "group": "stations",
        "lat": 31.841881470272554,
        "lon": -99.02835025924195,
        "alt_km": 415.0512839885778,
        "timestamp": "2025-12-19T04:59:47.057001+00:00",
        "meta_object_name": "SOYUZ-MS 28",
        "meta_object_id": "2025-275A",
        "meta_epoch": "2025-12-18T16:01:23.678688",
        "meta_mean_motion": 15.49654558,
        "meta_eccentricity": 0.00031819,
        "meta_inclination": 51.6314,
        "meta_ra_of_asc_node": 113.1238,
        "meta_arg_of_pericenter": 267.6136,
        "meta_mean_anomaly": 92.4488,
        "meta_ephemeris_type": 0,
        "meta_classification_type": "U",
        "meta_norad_cat_id": 66664,
        "meta_element_set_no": 999,
        "meta_rev_at_epoch": 128,
        "meta_bstar": 0.000138424,
        "meta_mean_motion_dot": 7.358e-05,
        "meta_mean_motion_ddot": 0,
        "tle_line1": "1 66664U 25275A   25352.66763517  .00007358  00000+0  13842-3 0  9990",
        "tle_line2": "2 66664  51.6314 113.1238 0003181 267.6136  92.4488 15.49654558  1281"
      },
      "geometry": {
        "type": "Point",
        "coordinates": [
          -99.02835025924195,
          31.841881470272554
        ]
      }
    },
    {
      "type": "Feature",
      "properties": {
        "norad_id": 66906,
        "name": "1998-067XS",
        "group": "stations",
        "lat": -10.738487269012746,
        "lon": -61.028753032789524,
        "alt_km": 414.48386925737304,
        "timestamp": "2025-12-19T04:59:47.057011+00:00",
        "meta_object_name": "1998-067XS",
        "meta_object_id": "1998-067XS",
        "meta_epoch": "2025-12-18T14:14:47.325984",
        "meta_mean_motion": 15.50877887,
        "meta_eccentricity": 0.00030668,
        "meta_inclination": 51.6311,
        "meta_ra_of_asc_node": 113.3804,
        "meta_arg_of_pericenter": 230.517,
        "meta_mean_anomaly": 129.5548,
        "meta_ephemeris_type": 0,
        "meta_classification_type": "U",
        "meta_norad_cat_id": 66906,
        "meta_element_set_no": 999,
        "meta_rev_at_epoch": 252,
        "meta_bstar": 0.00040765177,
        "meta_mean_motion_dot": 0.00023614,
        "meta_mean_motion_ddot": 0,
        "tle_line1": "1 66906U 98067XS  25352.59360331  .00023614  00000+0  40765-3 0  9994",
        "tle_line2": "2 66906  51.6311 113.3804 0003066 230.5170 129.5548 15.50877887  2528"
      },
      "geometry": {
        "type": "Point",
        "coordinates": [
          -61.028753032789524,
          -10.738487269012746
        ]
      }
    },
    {
      "type": "Feature",
      "properties": {
        "norad_id": 66907,
        "name": "1998-067XT",
        "group": "stations",
        "lat": -39.90638554730194,
        "lon": -28.257586647449273,
        "alt_km": 412.1001320071009,
        "timestamp": "2025-12-19T04:59:47.057043+00:00",
        "meta_object_name": "1998-067XT",
        "meta_object_id": "1998-067XT",
        "meta_epoch": "2025-12-18T14:04:54.777504",
        "meta_mean_motion": 15.52162368,
        "meta_eccentricity": 0.00039418,
        "meta_inclination": 51.6304,
        "meta_ra_of_asc_node": 113.334,
        "meta_arg_of_pericenter": 262.1658,
        "meta_mean_anomaly": 97.8884,
        "meta_ephemeris_type": 0,
        "meta_classification_type": "U",
        "meta_norad_cat_id": 66907,
        "meta_element_set_no": 999,
        "meta_rev_at_epoch": 252,
        "meta_bstar": 0.0008765902,
        "meta_mean_motion_dot": 0.0005395,
        "meta_mean_motion_ddot": 0,
        "tle_line1": "1 66907U 98067XT  25352.58674511  .00053950  00000+0  87659-3 0  9991",
        "tle_line2": "2 66907  51.6304 113.3340 0003941 262.1658  97.8884 15.52162368  2523"
      },
      "geometry": {
        "type": "Point",
        "coordinates": [
          -28.257586647449273,
          -39.90638554730194
        ]
      }
    },
    {
      "type": "Feature",
      "properties": {
        "norad_id": 66908,
        "name": "1998-067XU",
        "group": "stations",
        "lat": -42.16955529311233,
        "lon": -23.905377004007708,
        "alt_km": 411.7580729606234,
        "timestamp": "2025-12-19T04:59:47.057057+00:00",
        "meta_object_name": "1998-067XU",
        "meta_object_id": "1998-067XU",
        "meta_epoch": "2025-12-18T14:03:56.443680",
        "meta_mean_motion": 15.52259493,
        "meta_eccentricity": 0.00039838,
        "meta_inclination": 51.6306,
        "meta_ra_of_asc_node": 113.3296,
        "meta_arg_of_pericenter": 260.0245,
        "meta_mean_anomaly": 100.0295,
        "meta_ephemeris_type": 0,
        "meta_classification_type": "U",
        "meta_norad_cat_id": 66908,
        "meta_element_set_no": 999,
        "meta_rev_at_epoch": 252,
        "meta_bstar": 0.00087908108,
        "meta_mean_motion_dot": 0.00054298,
        "meta_mean_motion_ddot": 0,
        "tle_line1": "1 66908U 98067XU  25352.58606995  .00054298  00000+0  87908-3 0  9996",
        "tle_line2": "2 66908  51.6306 113.3296 0003983 260.0245 100.0295 15.52259493  2520"
      },
      "geometry": {
        "type": "Point",
        "coordinates": [
          -23.905377004007708,
          -42.16955529311233
        ]
      }
    }
  ]
}